{
    "links": {
        "self": "http://www.neowsapp.com/rest/v1/neo/3789683?api_key=iIulBulltgU6a56xZRHN4H3l9WmuAYTsLGpBGhQ2"
    },
    "id": "3789683",
    "neo_reference_id": "3789683",
    "name": "(2017 WJ15)",
    "designation": "2017 WJ15",
    "nasa_jpl_url": "http://ssd.jpl.nasa.gov/sbdb.cgi?sstr=3789683",
    "absolute_magnitude_h": 22.5,
    "estimated_diameter": {
        "kilometers": {
            "estimated_diameter_min": 0.0840533402,
            "estimated_diameter_max": 0.1879489824
        },
        "meters": {
            "estimated_diameter_min": 84.0533402073,
            "estimated_diameter_max": 187.9489824394
        },
        "miles": {
            "estimated_diameter_min": 0.0522283081,
            "estimated_diameter_max": 0.1167860472
        },
        "feet": {
            "estimated_diameter_min": 275.7655606856,
            "estimated_diameter_max": 616.6305395464
        }
    },
    "is_potentially_hazardous_asteroid": false,
    "close_approach_data": [
        {
            "close_approach_date": "2017-11-21",
            "close_approach_date_full": "2017-Nov-21 06:59",
            "epoch_date_close_approach": 1511247540000,
            "relative_velocity": {
                "kilometers_per_second": "14.0666701125",
                "kilometers_per_hour": "50640.0124051739",
                "miles_per_hour": "31465.7343747593"
            },
            "miss_distance": {
                "astronomical": "0.3117453028",
                "lunar": "121.2689227892",
                "kilometers": "46636433.281385036",
                "miles": "28978535.8884880568"
            },
            "orbiting_body": "Earth"
        }
    ],
    "orbital_data": {
        "orbit_id": "2",
        "orbit_determination_date": "2017-12-09 06:22:45",
        "first_observation_date": "2017-11-24",
        "last_observation_date": "2017-12-08",
        "data_arc_in_days": 14,
        "observations_used": 33,
        "orbit_uncertainty": "8",
        "minimum_orbit_intersection": ".311637",
        "jupiter_tisserand_invariant": "3.886",
        "epoch_osculation": "2458088.5",
        "eccentricity": ".3123122580652933",
        "semi_major_axis": "1.803407587448178",
        "inclination": "26.58217967896679",
        "ascending_node_longitude": "69.43959117939394",
        "orbital_period": "884.5843786958708",
        "perihelion_distance": "1.240181291600155",
        "perihelion_argument": "317.8498388711832",
        "aphelion_distance": "2.366633883296202",
        "perihelion_time": "2458039.999743558709",
        "mean_anomaly": "19.73818749162845",
        "mean_motion": ".4069707861343227",
        "equinox": "J2000",
        "orbit_class": {
            "orbit_class_type": "AMO",
            "orbit_class_description": "Near-Earth asteroid orbits similar to that of 1221 Amor",
            "orbit_class_range": "1.017 AU < q (perihelion) < 1.3 AU"
        }
    },
    "is_sentry_object": false
}